1 27424U 02022A   12085.59357264 +.00000521 +00000-0 +12573-3 0 02578
2 27424 098.2280 027.3467 0001204 086.4917 273.6403 14.57082631526196